<ndm xmlns:xsi="http://www.w3.org/2001/XMLSchema-instance" xsi:noNamespaceSchemaLocation="https://sanaregistry.org/r/ndmxml_unqualified/ndmxml-2.0.0-master-2.0.xsd">
<omm id="CCSDS_OMM_VERS" version="2.0">
<header>
<CREATION_DATE/>
<ORIGINATOR/>
</header>
<body>
<segment>
<metadata>
<OBJECT_NAME>IRIDIUM 33 [-]</OBJECT_NAME>
<OBJECT_ID>1997-051C</OBJECT_ID>
<CENTER_NAME>EARTH</CENTER_NAME>
<REF_FRAME>TEME</REF_FRAME>
<TIME_SYSTEM>UTC</TIME_SYSTEM>
<MEAN_ELEMENT_THEORY>SGP4</MEAN_ELEMENT_THEORY>
</metadata>
<data>
<meanElements>
<EPOCH>2023-04-16T13:58:46.148448</EPOCH>
<MEAN_MOTION>14.34007527</MEAN_MOTION>
<ECCENTRICITY>.0009341</ECCENTRICITY>
<INCLINATION>86.3823</INCLINATION>
<RA_OF_ASC_NODE>115.3886</RA_OF_ASC_NODE>
<ARG_OF_PERICENTER>132.8900</ARG_OF_PERICENTER>
<MEAN_ANOMALY>227.3081</MEAN_ANOMALY>
</meanElements>
<tleParameters>
<EPHEMERIS_TYPE>0</EPHEMERIS_TYPE>
<CLASSIFICATION_TYPE>U</CLASSIFICATION_TYPE>
<NORAD_CAT_ID>24946</NORAD_CAT_ID>
<ELEMENT_SET_NO>999</ELEMENT_SET_NO>
<REV_AT_EPOCH>33912</REV_AT_EPOCH>
<BSTAR>.17743E-3</BSTAR>
<MEAN_MOTION_DOT>.515E-5</MEAN_MOTION_DOT>
<MEAN_MOTION_DDOT>0</MEAN_MOTION_DDOT>
</tleParameters>
</data>
</segment>
</body>
</omm>
<omm id="CCSDS_OMM_VERS" version="2.0">
<header>
<CREATION_DATE/>
<ORIGINATOR/>
</header>
<body>
<segment>
<metadata>
<OBJECT_NAME>IRIDIUM 28 [-]</OBJECT_NAME>
<OBJECT_ID>1997-051E</OBJECT_ID>
<CENTER_NAME>EARTH</CENTER_NAME>
<REF_FRAME>TEME</REF_FRAME>
<TIME_SYSTEM>UTC</TIME_SYSTEM>
<MEAN_ELEMENT_THEORY>SGP4</MEAN_ELEMENT_THEORY>
</metadata>
<data>
<meanElements>
<EPOCH>2023-04-16T12:29:49.104672</EPOCH>
<MEAN_MOTION>14.36140898</MEAN_MOTION>
<ECCENTRICITY>.0002409</ECCENTRICITY>
<INCLINATION>86.3913</INCLINATION>
<RA_OF_ASC_NODE>114.0820</RA_OF_ASC_NODE>
<ARG_OF_PERICENTER>97.7437</ARG_OF_PERICENTER>
<MEAN_ANOMALY>262.4033</MEAN_ANOMALY>
</meanElements>
<tleParameters>
<EPHEMERIS_TYPE>0</EPHEMERIS_TYPE>
<CLASSIFICATION_TYPE>U</CLASSIFICATION_TYPE>
<NORAD_CAT_ID>24948</NORAD_CAT_ID>
<ELEMENT_SET_NO>999</ELEMENT_SET_NO>
<REV_AT_EPOCH>34003</REV_AT_EPOCH>
<BSTAR>.25156E-3</BSTAR>
<MEAN_MOTION_DOT>.752E-5</MEAN_MOTION_DOT>
<MEAN_MOTION_DDOT>0</MEAN_MOTION_DDOT>
</tleParameters>
</data>
</segment>
</body>
</omm>
<omm id="CCSDS_OMM_VERS" version="2.0">
<header>
<CREATION_DATE/>
<ORIGINATOR/>
</header>
<body>
<segment>
<metadata>
<OBJECT_NAME>IRIDIUM 36 [-]</OBJECT_NAME>
<OBJECT_ID>1997-056C</OBJECT_ID>
<CENTER_NAME>EARTH</CENTER_NAME>
<REF_FRAME>TEME</REF_FRAME>
<TIME_SYSTEM>UTC</TIME_SYSTEM>
<MEAN_ELEMENT_THEORY>SGP4</MEAN_ELEMENT_THEORY>
</metadata>
<data>
<meanElements>
<EPOCH>2023-04-16T13:36:41.629536</EPOCH>
<MEAN_MOTION>14.36238978</MEAN_MOTION>
<ECCENTRICITY>.0002517</ECCENTRICITY>
<INCLINATION>86.3969</INCLINATION>
<RA_OF_ASC_NODE>145.7261</RA_OF_ASC_NODE>
<ARG_OF_PERICENTER>89.5028</ARG_OF_PERICENTER>
<MEAN_ANOMALY>270.6457</MEAN_ANOMALY>
</meanElements>
<tleParameters>
<EPHEMERIS_TYPE>0</EPHEMERIS_TYPE>
<CLASSIFICATION_TYPE>U</CLASSIFICATION_TYPE>
<NORAD_CAT_ID>24967</NORAD_CAT_ID>
<ELEMENT_SET_NO>999</ELEMENT_SET_NO>
<REV_AT_EPOCH>33840</REV_AT_EPOCH>
<BSTAR>.21723E-3</BSTAR>
<MEAN_MOTION_DOT>.653E-5</MEAN_MOTION_DOT>
<MEAN_MOTION_DDOT>0</MEAN_MOTION_DDOT>
</tleParameters>
</data>
</segment>
</body>
</omm>
<omm id="CCSDS_OMM_VERS" version="2.0">
<header>
<CREATION_DATE/>
<ORIGINATOR/>
</header>
<body>
<segment>
<metadata>
<OBJECT_NAME>IRIDIUM 39 [-]</OBJECT_NAME>
<OBJECT_ID>1997-069D</OBJECT_ID>
<CENTER_NAME>EARTH</CENTER_NAME>
<REF_FRAME>TEME</REF_FRAME>
<TIME_SYSTEM>UTC</TIME_SYSTEM>
<MEAN_ELEMENT_THEORY>SGP4</MEAN_ELEMENT_THEORY>
</metadata>
<data>
<meanElements>
<EPOCH>2023-04-16T07:31:07.944960</EPOCH>
<MEAN_MOTION>14.47127152</MEAN_MOTION>
<ECCENTRICITY>.0020727</ECCENTRICITY>
<INCLINATION>86.3990</INCLINATION>
<RA_OF_ASC_NODE>190.4960</RA_OF_ASC_NODE>
<ARG_OF_PERICENTER>73.5953</ARG_OF_PERICENTER>
<MEAN_ANOMALY>286.7526</MEAN_ANOMALY>
</meanElements>
<tleParameters>
<EPHEMERIS_TYPE>0</EPHEMERIS_TYPE>
<CLASSIFICATION_TYPE>U</CLASSIFICATION_TYPE>
<NORAD_CAT_ID>25042</NORAD_CAT_ID>
<ELEMENT_SET_NO>999</ELEMENT_SET_NO>
<REV_AT_EPOCH>33422</REV_AT_EPOCH>
<BSTAR>.34164E-3</BSTAR>
<MEAN_MOTION_DOT>.1269E-4</MEAN_MOTION_DOT>
<MEAN_MOTION_DDOT>0</MEAN_MOTION_DDOT>
</tleParameters>
</data>
</segment>
</body>
</omm>
<omm id="CCSDS_OMM_VERS" version="2.0">
<header>
<CREATION_DATE/>
<ORIGINATOR/>
</header>
<body>
<segment>
<metadata>
<OBJECT_NAME>IRIDIUM 38 [-]</OBJECT_NAME>
<OBJECT_ID>1997-069E</OBJECT_ID>
<CENTER_NAME>EARTH</CENTER_NAME>
<REF_FRAME>TEME</REF_FRAME>
<TIME_SYSTEM>UTC</TIME_SYSTEM>
<MEAN_ELEMENT_THEORY>SGP4</MEAN_ELEMENT_THEORY>
</metadata>
<data>
<meanElements>
<EPOCH>2023-04-16T08:45:34.688448</EPOCH>
<MEAN_MOTION>14.36717849</MEAN_MOTION>
<ECCENTRICITY>.0002778</ECCENTRICITY>
<INCLINATION>86.4031</INCLINATION>
<RA_OF_ASC_NODE>206.2525</RA_OF_ASC_NODE>
<ARG_OF_PERICENTER>143.2482</ARG_OF_PERICENTER>
<MEAN_ANOMALY>216.8906</MEAN_ANOMALY>
</meanElements>
<tleParameters>
<EPHEMERIS_TYPE>0</EPHEMERIS_TYPE>
<CLASSIFICATION_TYPE>U</CLASSIFICATION_TYPE>
<NORAD_CAT_ID>25043</NORAD_CAT_ID>
<ELEMENT_SET_NO>999</ELEMENT_SET_NO>
<REV_AT_EPOCH>33207</REV_AT_EPOCH>
<BSTAR>.29352E-3</BSTAR>
<MEAN_MOTION_DOT>.884E-5</MEAN_MOTION_DOT>
<MEAN_MOTION_DDOT>0</MEAN_MOTION_DDOT>
</tleParameters>
</data>
</segment>
</body>
</omm>
<omm id="CCSDS_OMM_VERS" version="2.0">
<header>
<CREATION_DATE/>
<ORIGINATOR/>
</header>
<body>
<segment>
<metadata>
<OBJECT_NAME>IRIDIUM 42 [-]</OBJECT_NAME>
<OBJECT_ID>1997-077A</OBJECT_ID>
<CENTER_NAME>EARTH</CENTER_NAME>
<REF_FRAME>TEME</REF_FRAME>
<TIME_SYSTEM>UTC</TIME_SYSTEM>
<MEAN_ELEMENT_THEORY>SGP4</MEAN_ELEMENT_THEORY>
</metadata>
<data>
<meanElements>
<EPOCH>2023-04-16T07:59:33.784224</EPOCH>
<MEAN_MOTION>14.35045560</MEAN_MOTION>
<ECCENTRICITY>.0002261</ECCENTRICITY>
<INCLINATION>86.4029</INCLINATION>
<RA_OF_ASC_NODE>211.4659</RA_OF_ASC_NODE>
<ARG_OF_PERICENTER>111.8026</ARG_OF_PERICENTER>
<MEAN_ANOMALY>248.3411</MEAN_ANOMALY>
</meanElements>
<tleParameters>
<EPHEMERIS_TYPE>0</EPHEMERIS_TYPE>
<CLASSIFICATION_TYPE>U</CLASSIFICATION_TYPE>
<NORAD_CAT_ID>25077</NORAD_CAT_ID>
<ELEMENT_SET_NO>999</ELEMENT_SET_NO>
<REV_AT_EPOCH>32744</REV_AT_EPOCH>
<BSTAR>.26766E-3</BSTAR>
<MEAN_MOTION_DOT>.782E-5</MEAN_MOTION_DOT>
<MEAN_MOTION_DDOT>0</MEAN_MOTION_DDOT>
</tleParameters>
</data>
</segment>
</body>
</omm>
<omm id="CCSDS_OMM_VERS" version="2.0">
<header>
<CREATION_DATE/>
<ORIGINATOR/>
</header>
<body>
<segment>
<metadata>
<OBJECT_NAME>IRIDIUM 44 [-]</OBJECT_NAME>
<OBJECT_ID>1997-077B</OBJECT_ID>
<CENTER_NAME>EARTH</CENTER_NAME>
<REF_FRAME>TEME</REF_FRAME>
<TIME_SYSTEM>UTC</TIME_SYSTEM>
<MEAN_ELEMENT_THEORY>SGP4</MEAN_ELEMENT_THEORY>
</metadata>
<data>
<meanElements>
<EPOCH>2023-04-16T07:26:05.230464</EPOCH>
<MEAN_MOTION>14.38811923</MEAN_MOTION>
<ECCENTRICITY>.0004092</ECCENTRICITY>
<INCLINATION>86.4031</INCLINATION>
<RA_OF_ASC_NODE>195.5587</RA_OF_ASC_NODE>
<ARG_OF_PERICENTER>104.1350</ARG_OF_PERICENTER>
<MEAN_ANOMALY>256.0303</MEAN_ANOMALY>
</meanElements>
<tleParameters>
<EPHEMERIS_TYPE>0</EPHEMERIS_TYPE>
<CLASSIFICATION_TYPE>U</CLASSIFICATION_TYPE>
<NORAD_CAT_ID>25078</NORAD_CAT_ID>
<ELEMENT_SET_NO>999</ELEMENT_SET_NO>
<REV_AT_EPOCH>32964</REV_AT_EPOCH>
<BSTAR>.27052E-3</BSTAR>
<MEAN_MOTION_DOT>.851E-5</MEAN_MOTION_DOT>
<MEAN_MOTION_DDOT>0</MEAN_MOTION_DDOT>
</tleParameters>
</data>
</segment>
</body>
</omm>

</ndm>